[{"OBJECT_NAME":"GHGSAT-C3","OBJECT_ID":"2022-057F","EPOCH":"2026-03-09T22:30:13.234752","MEAN_MOTION":15.32943835,"ECCENTRICITY":0.00073198,"INCLINATION":97.6431,"RA_OF_ASC_NODE":211.0668,"ARG_OF_PERICENTER":112.4588,"MEAN_ANOMALY":247.7429,"EPHEMERIS_TYPE":0,"CLASSIFICATION_TYPE":"U","NORAD_CAT_ID":52737,"ELEMENT_SET_NO":999,"REV_AT_EPOCH":21032,"BSTAR":0.00031249517,"MEAN_MOTION_DOT":9.871e-5,"MEAN_MOTION_DDOT":0},{"OBJECT_NAME":"STARLINK-35493","OBJECT_ID":"2025-225U","EPOCH":"2026-03-09T13:00:24.135264","MEAN_MOTION":15.30183801,"ECCENTRICITY":0.00011957,"INCLINATION":53.1589,"RA_OF_ASC_NODE":166.4946,"ARG_OF_PERICENTER":80.2123,"MEAN_ANOMALY":279.9013,"EPHEMERIS_TYPE":0,"CLASSIFICATION_TYPE":"U","NORAD_CAT_ID":65928,"ELEMENT_SET_NO":999,"REV_AT_EPOCH":2438,"BSTAR":0.0013905869,"MEAN_MOTION_DOT":0.00041033,"MEAN_MOTION_DDOT":0}]
